     3.02           N: GNSS NAV DATA    G: GPS              RINEX VERSION / TYPE
GNSS-SDR            UNKNOWN USER        20210328 184519 UTC PGM / RUN BY / DATE 
GPS NAVIGATION MESSAGE FILE GENERATED BY GNSS-SDR           COMMENT             
GNSS-SDR VERSION 0.0.11                                     COMMENT             
See https://gnss-sdr.org                                    COMMENT             
GPSA    .8382D-08  -.7451D-08  -.5960D-07   .5960D-07       IONOSPHERIC CORR    
GPSB    .8806D+05  -.3277D+05  -.1966D+06   .1966D+06       IONOSPHERIC CORR    
GPUT  -.4656612873D-08 -.115463195D-13 589824 2091          TIME SYSTEM CORR    
    18    18   137     7                                    LEAP SECONDS        
                                                            END OF HEADER       
G01 2020 02 06 16 00 00 -.286428257823D-03 -.120508047985D-10  .000000000000D+00
      .370000000000D+02 -.114843750000D+03  .410659962779D-08  .193637503146D+01
     -.600889325142D-05  .935867254157D-02  .461377203465D-05  .515363877296D+04
      .403200000000D+06 -.221654772758D-06 -.120611656042D+01 -.484287738800D-07
      .978594242424D+00  .300125000000D+03  .754374643395D+00 -.808426531353D-08
     -.172864343351D-09  .100000000000D+01  .209100000000D+04  .100000000000D+01
      .000000000000D+00  .000000000000D+00  .512227416039D-08  .370000000000D+02
      .400008000000D+06  .000000000000D+00                                      
G03 2020 02 06 16 00 00 -.884747132659D-04 -.841282599140D-11  .000000000000D+00
      .870000000000D+02 -.627187500000D+02  .418160275197D-08  .802158793888D+00
     -.350922346115D-05  .263222330250D-02  .116098672152D-04  .515362615967D+04
      .403200000000D+06 -.707805156708D-07 -.164944823894D+00  .409781932831D-07
      .965250731093D+00  .158593750000D+03  .740244488829D+00 -.775889461768D-08
      .414302971667D-09  .100000000000D+01  .209100000000D+04  .100000000000D+01
      .000000000000D+00  .000000000000D+00  .139698386192D-08  .870000000000D+02
      .400008000000D+06  .000000000000D+00                                      
G08 2020 02 06 16 00 00 -.228290446103D-04 -.136424205266D-11  .000000000000D+00
      .130000000000D+02  .705937500000D+02  .438089676765D-08 -.197616123912D+01
      .371225178242D-05  .514692149591D-02  .213645398617D-05  .515362188530D+04
      .403200000000D+06 -.167638063431D-07 -.227541570436D+01 -.558793544769D-08
      .970031041206D+00  .346406250000D+03 -.187981519236D+00 -.825712965688D-08
      .243581574722D-09  .100000000000D+01  .209100000000D+04  .100000000000D+01
      .000000000000D+00  .000000000000D+00  .512227416039D-08  .130000000000D+02
      .400008000000D+06  .000000000000D+00                                      
G10 2020 02 06 16 00 00 -.235901679844D-03 -.130739863380D-10  .000000000000D+00
      .850000000000D+02 -.627812500000D+02  .418660296025D-08 -.124413603263D+00
     -.319257378578D-05  .536726112477D-02  .108908861876D-04  .515367084312D+04
      .403200000000D+06  .465661287308D-07 -.168041891688D+00  .353902578354D-07
      .965221790185D+00  .173187500000D+03 -.268271704477D+01 -.780925385820D-08
      .387873299337D-09  .100000000000D+01  .209100000000D+04  .100000000000D+01
      .000000000000D+00  .000000000000D+00  .139698386192D-08  .850000000000D+02
      .400008000000D+06  .000000000000D+00                                      
G11 2020 02 06 16 00 00 -.368771608919D-03  .106865627458D-10  .000000000000D+00
      .860000000000D+02 -.497187500000D+02  .575631120204D-08  .136619164309D+01
     -.286847352982D-05  .158447993454D-01  .119209289551D-06  .515286580849D+04
      .403200000000D+06  .311061739922D-06 -.167374300872D+01 -.322237610817D-06
      .911610175743D+00  .349156250000D+03  .197908104220D+01 -.898323133050D-08
     -.239295681911D-10  .100000000000D+01  .209100000000D+04  .100000000000D+01
      .000000000000D+00  .000000000000D+00 -.121071934700D-07  .860000000000D+02
      .400008000000D+06  .000000000000D+00                                      
G14 2020 02 06 16 00 00 -.341399572790D-04  .227373675443D-11  .000000000000D+00
      .760000000000D+02  .156875000000D+02  .495627787744D-08 -.245925595560D+01
      .821426510811D-06  .108978424687D-01  .595115125179D-05  .515360287476D+04
      .403200000000D+06  .197440385818D-06  .960982184834D+00  .577419996262D-07
      .960301310576D+00  .261875000000D+03 -.192982214886D+01 -.799819029959D-08
      .413231498465D-09  .100000000000D+01  .209100000000D+04  .100000000000D+01
      .000000000000D+00  .000000000000D+00 -.931322574615D-08  .760000000000D+02
      .400008000000D+06  .000000000000D+00                                      
G18 2020 02 06 16 00 00  .120094045997D-05  .204636307899D-11  .000000000000D+00
      .720000000000D+02 -.113187500000D+03  .454661795632D-08  .162475786100D+01
     -.614859163761D-05  .156667190604D-01  .365823507309D-05  .515364634514D+04
      .403200000000D+06 -.186264514923D-07 -.126675220925D+01 -.402331352234D-06
      .957131837114D+00  .308531250000D+03  .145251010617D+01 -.831820362943D-08
     -.123219418298D-09  .100000000000D+01  .209100000000D+04  .100000000000D+01
      .000000000000D+00  .630000000000D+02 -.512227416039D-08  .720000000000D+02
      .400008000000D+06  .000000000000D+00                                      
G23 2020 02 06 16 00 00 -.138143077493D-03  .261479726760D-11  .000000000000D+00
      .104000000000D+03  .175625000000D+02  .530093509094D-08  .263579660111D+01
      .772997736931D-06  .134158036672D-01  .652112066746D-05  .515366370583D+04
      .403200000000D+06  .111758708954D-07  .858444103243D+00 -.201165676117D-06
      .943384403861D+00  .246187500000D+03 -.220000619945D+01 -.807497921244D-08
      .387873299337D-09  .100000000000D+01  .209100000000D+04  .100000000000D+01
      .000000000000D+00  .000000000000D+00 -.195577740669D-07  .104000000000D+03
      .400008000000D+06  .000000000000D+00                                      
G25 2020 02 06 16 00 00 -.140466727316D-04  .125055521494D-11  .000000000000D+00
      .900000000000D+01  .103218750000D+03  .414231540121D-08  .259756866453D+00
      .550039112568D-05  .904158607591D-02  .104978680611D-04  .515360259247D+04
      .403200000000D+06 -.614672899246D-07  .297787062879D+01  .152736902237D-06
      .967364249804D+00  .179062500000D+03  .895665253744D+00 -.790711507737D-08
     -.245724521127D-09  .100000000000D+01  .209100000000D+04  .100000000000D+01
      .000000000000D+00  .000000000000D+00  .512227416039D-08  .900000000000D+01
      .400008000000D+06  .000000000000D+00                                      
G22 2020 02 06 16 00 00 -.784023664892D-03 -.682121026330D-12  .000000000000D+00
      .410000000000D+02 -.717187500000D+02  .490270421731D-08 -.311510267868D+01
     -.389292836189D-05  .705202610698D-02  .109411776066D-04  .515358532715D+04
      .403200000000D+06  .614672899246D-07 -.247303139934D+00  .596046447754D-07
      .930065254505D+00  .147031250000D+03 -.122798946786D+01 -.800247619240D-08
      .371444043564D-09  .100000000000D+01  .209100000000D+04  .100000000000D+01
      .000000000000D+00  .000000000000D+00 -.176951289177D-07  .410000000000D+02
      .400038000000D+06  .000000000000D+00                                      
G31 2020 02 06 16 00 00 -.214604660869D-04 -.250111042988D-11  .000000000000D+00
      .280000000000D+02 -.145312500000D+02  .485163066132D-08  .813711131729D+00
     -.549480319023D-06  .965157209430D-02  .780262053013D-05  .515376977730D+04
      .403200000000D+06  .614672899246D-07  .195619411310D+01  .167638063431D-06
      .957874279743D+00  .224031250000D+03  .116225163622D+00 -.810533761985D-08
     -.662884754668D-09  .100000000000D+01  .209100000000D+04  .100000000000D+01
      .000000000000D+00  .000000000000D+00 -.130385160446D-07  .280000000000D+02
      .400038000000D+06  .000000000000D+00                                      
G32 2020 02 06 16 00 00  .205313321203D-03  .989075488178D-11  .000000000000D+00
      .540000000000D+02  .178750000000D+02  .504056710271D-08 -.141250130090D+01
      .981613993645D-06  .352522940375D-02  .644847750664D-05  .515366992760D+04
      .403200000000D+06  .298023223877D-07  .873882503023D+00  .242143869400D-07
      .956717856167D+00  .252687500000D+03 -.253111547912D+01 -.814462497061D-08
      .449304429619D-09  .100000000000D+01  .209100000000D+04  .100000000000D+01
      .000000000000D+00  .000000000000D+00  .465661287308D-09  .540000000000D+02
      .400038000000D+06  .000000000000D+00                                      
G17 2020 02 06 16 00 00  .211540143937D-03  .636646291241D-11  .000000000000D+00
      .120000000000D+02  .639687500000D+02  .407124101210D-08 -.227130944838D+01
      .342540442944D-05  .134212514386D-01  .990927219391D-06  .515364862633D+04
      .403200000000D+06  .191852450371D-06 -.220431067644D+01 -.167638063431D-07
      .984128487850D+00  .373468750000D+03 -.165451769481D+01 -.801247660895D-08
      .192865176466D-09  .100000000000D+01  .209100000000D+04  .100000000000D+01
      .000000000000D+00  .000000000000D+00 -.111758708954D-07  .120000000000D+02
      .400038000000D+06  .000000000000D+00                                      
